[
    {
        "Altitude(m)": 702751.43538829,
        "Argument of Periapsis(deg)": 0.004556048474650827,
        "Eccentricity": 0.0,
        "Inclination(deg)": 45.0,
        "Latitude(deg)": 8.26491743487756,
        "Longitude(deg)": 31.401857817355115,
        "Mean Anomaly(deg)": -191.75031334100757,
        "RAAN(deg)": 319.9956992234167,
        "Satellite Name": "Constellation 1 1418",
        "Satellite Number": 1418,
        "Semi-Major Axis(m)": 7083131.272910544,
        "Time(s)": 76
    },
    {
        "Altitude(m)": 702753.082706201,
        "Argument of Periapsis(deg)": 0.004615996480896233,
        "Eccentricity": 0.0,
        "Inclination(deg)": 45.0,
        "Latitude(deg)": 8.22215091131724,
        "Longitude(deg)": 31.441510812091618,
        "Mean Anomaly(deg)": -191.68961220075772,
        "RAAN(deg)": 319.99564263425117,
        "Satellite Name": "Constellation 1 1418",
        "Satellite Number": 1418,
        "Semi-Major Axis(m)": 7083131.272910544,
        "Time(s)": 77
    },
    {
        "Altitude(m)": 702754.7501939157,
        "Argument of Periapsis(deg)": 0.004675944487141638,
        "Eccentricity": 0.0,
        "Inclination(deg)": 45.0,
        "Latitude(deg)": 8.179379584362337,
        "Longitude(deg)": 31.481154387785143,
        "Mean Anomaly(deg)": -191.62891106050785,
        "RAAN(deg)": 319.9955860450856,
        "Satellite Name": "Constellation 1 1418",
        "Satellite Number": 1418,
        "Semi-Major Axis(m)": 7083131.272910544,
        "Time(s)": 78
    },
    {
        "Altitude(m)": 702756.4378625175,
        "Argument of Periapsis(deg)": 0.004735892493387044,
        "Eccentricity": 0.0,
        "Inclination(deg)": 45.0,
        "Latitude(deg)": 8.136603480676483,
        "Longitude(deg)": 31.52078859472195,
        "Mean Anomaly(deg)": -191.56820992025797,
        "RAAN(deg)": 319.99552945591995,
        "Satellite Name": "Constellation 1 1418",
        "Satellite Number": 1418,
        "Semi-Major Axis(m)": 7083131.272910544,
        "Time(s)": 79
    },
    {
        "Altitude(m)": 702758.1457230117,
        "Argument of Periapsis(deg)": 0.004795840499632449,
        "Eccentricity": 0.0,
        "Inclination(deg)": 45.0,
        "Latitude(deg)": 8.093822626905158,
        "Longitude(deg)": 31.560413483168418,
        "Mean Anomaly(deg)": -191.50750878000804,
        "RAAN(deg)": 319.9954728667544,
        "Satellite Name": "Constellation 1 1418",
        "Satellite Number": 1418,
        "Semi-Major Axis(m)": 7083131.272910544,
        "Time(s)": 80
    },
    {
        "Altitude(m)": 702759.8737862997,
        "Argument of Periapsis(deg)": 0.004855788505877855,
        "Eccentricity": 0.0,
        "Inclination(deg)": 45.0,
        "Latitude(deg)": 8.05103704967613,
        "Longitude(deg)": 31.600029103371035,
        "Mean Anomaly(deg)": -191.4468076397582,
        "RAAN(deg)": 319.99541627758884,
        "Satellite Name": "Constellation 1 1418",
        "Satellite Number": 1418,
        "Semi-Major Axis(m)": 7083131.272910544,
        "Time(s)": 81
    },
    {
        "Altitude(m)": 702761.6220632115,
        "Argument of Periapsis(deg)": 0.00491573651212326,
        "Eccentricity": 0.0,
        "Inclination(deg)": 45.0,
        "Latitude(deg)": 8.00824677559884,
        "Longitude(deg)": 31.639635337459588,
        "Mean Anomaly(deg)": -191.38610649950823,
        "RAAN(deg)": 319.9953596884233,
        "Satellite Name": "Constellation 1 1418",
        "Satellite Number": 1418,
        "Semi-Major Axis(m)": 7083131.272910544,
        "Time(s)": 82
    },
    {
        "Altitude(m)": 702763.3905644785,
        "Argument of Periapsis(deg)": 0.004975684518368666,
        "Eccentricity": 0.0,
        "Inclination(deg)": 45.0,
        "Latitude(deg)": 7.965451831266069,
        "Longitude(deg)": 31.679232571835236,
        "Mean Anomaly(deg)": -191.32540535925833,
        "RAAN(deg)": 319.99530309925774,
        "Satellite Name": "Constellation 1 1418",
        "Satellite Number": 1418,
        "Semi-Major Axis(m)": 7083131.272910544,
        "Time(s)": 83
    },
    {
        "Altitude(m)": 702765.1793007475,
        "Argument of Periapsis(deg)": 0.005035632524614072,
        "Eccentricity": 0.0,
        "Inclination(deg)": 45.0,
        "Latitude(deg)": 7.922652243252117,
        "Longitude(deg)": 31.71882068858855,
        "Mean Anomaly(deg)": -191.26470421900848,
        "RAAN(deg)": 319.9952465100921,
        "Satellite Name": "Constellation 1 1418",
        "Satellite Number": 1418,
        "Semi-Major Axis(m)": 7083131.272910544,
        "Time(s)": 84
    },
    {
        "Altitude(m)": 702766.9882825752,
        "Argument of Periapsis(deg)": 0.0050955805308594785,
        "Eccentricity": 0.0,
        "Inclination(deg)": 45.0,
        "Latitude(deg)": 7.879848038113751,
        "Longitude(deg)": 31.758399737887842,
        "Mean Anomaly(deg)": -191.20400307875855,
        "RAAN(deg)": 319.9951899209266,
        "Satellite Name": "Constellation 1 1418",
        "Satellite Number": 1418,
        "Semi-Major Axis(m)": 7083131.272910544,
        "Time(s)": 85
    },
    {
        "Altitude(m)": 702768.8175204385,
        "Argument of Periapsis(deg)": 0.005155528537104883,
        "Eccentricity": 0.0,
        "Inclination(deg)": 45.0,
        "Latitude(deg)": 7.837039242390762,
        "Longitude(deg)": 31.797969769881707,
        "Mean Anomaly(deg)": -191.1433019385087,
        "RAAN(deg)": 319.995133331761,
        "Satellite Name": "Constellation 1 1418",
        "Satellite Number": 1418,
        "Semi-Major Axis(m)": 7083131.272910544,
        "Time(s)": 86
    },
    {
        "Altitude(m)": 702770.6670247178,
        "Argument of Periapsis(deg)": 0.0052154765433502885,
        "Eccentricity": 0.0,
        "Inclination(deg)": 45.0,
        "Latitude(deg)": 7.794225882605291,
        "Longitude(deg)": 31.837530834699717,
        "Mean Anomaly(deg)": -191.08260079825877,
        "RAAN(deg)": 319.9950767425955,
        "Satellite Name": "Constellation 1 1418",
        "Satellite Number": 1418,
        "Semi-Major Axis(m)": 7083131.272910544,
        "Time(s)": 87
    },
    {
        "Altitude(m)": 702772.536805709,
        "Argument of Periapsis(deg)": 0.005275424549595694,
        "Eccentricity": 0.0,
        "Inclination(deg)": 45.0,
        "Latitude(deg)": 7.751407985262411,
        "Longitude(deg)": 31.87708298245204,
        "Mean Anomaly(deg)": -191.02189965800883,
        "RAAN(deg)": 319.99502015342983,
        "Satellite Name": "Constellation 1 1418",
        "Satellite Number": 1418,
        "Semi-Major Axis(m)": 7083131.272910544,
        "Time(s)": 88
    },
    {
        "Altitude(m)": 702774.426873615,
        "Argument of Periapsis(deg)": 0.0053353725558411,
        "Eccentricity": 0.0,
        "Inclination(deg)": 45.0,
        "Latitude(deg)": 7.708585576849767,
        "Longitude(deg)": 31.916626095132887,
        "Mean Anomaly(deg)": -190.961198517759,
        "RAAN(deg)": 319.99496356426425,
        "Satellite Name": "Constellation 1 1418",
        "Satellite Number": 1418,
        "Semi-Major Axis(m)": 7083131.272910544,
        "Time(s)": 89
    },
    {
        "Altitude(m)": 702776.3372385574,
        "Argument of Periapsis(deg)": 0.005395320562086505,
        "Eccentricity": 0.0,
        "Inclination(deg)": 45.0,
        "Latitude(deg)": 7.6657586838387095,
        "Longitude(deg)": 31.956160559008705,
        "Mean Anomaly(deg)": -190.90049737750905,
        "RAAN(deg)": 319.99490697509873,
        "Satellite Name": "Constellation 1 1418",
        "Satellite Number": 1418,
        "Semi-Major Axis(m)": 7083131.272910544,
        "Time(s)": 90
    },
    {
        "Altitude(m)": 702778.267910569,
        "Argument of Periapsis(deg)": 0.00545526856833191,
        "Eccentricity": 0.0,
        "Inclination(deg)": 45.0,
        "Latitude(deg)": 7.622927332683033,
        "Longitude(deg)": 31.99568625603555,
        "Mean Anomaly(deg)": -190.83979623725915,
        "RAAN(deg)": 319.99485038593315,
        "Satellite Name": "Constellation 1 1418",
        "Satellite Number": 1418,
        "Semi-Major Axis(m)": 7083131.272910544,
        "Time(s)": 91
    },
    {
        "Altitude(m)": 702780.2188995881,
        "Argument of Periapsis(deg)": 0.005515216574577317,
        "Eccentricity": 0.0,
        "Inclination(deg)": 45.0,
        "Latitude(deg)": 7.580091549819602,
        "Longitude(deg)": 32.035203236248165,
        "Mean Anomaly(deg)": -190.77909509700922,
        "RAAN(deg)": 319.9947937967676,
        "Satellite Name": "Constellation 1 1418",
        "Satellite Number": 1418,
        "Semi-Major Axis(m)": 7083131.272910544,
        "Time(s)": 92
    },
    {
        "Altitude(m)": 702782.1902154705,
        "Argument of Periapsis(deg)": 0.005575164580822722,
        "Eccentricity": 0.0,
        "Inclination(deg)": 45.0,
        "Latitude(deg)": 7.537251361668963,
        "Longitude(deg)": 32.07471154966207,
        "Mean Anomaly(deg)": -190.71839395675937,
        "RAAN(deg)": 319.99473720760204,
        "Satellite Name": "Constellation 1 1418",
        "Satellite Number": 1418,
        "Semi-Major Axis(m)": 7083131.272910544,
        "Time(s)": 93
    },
    {
        "Altitude(m)": 702784.18186798,
        "Argument of Periapsis(deg)": 0.005635112587068129,
        "Eccentricity": 0.0,
        "Inclination(deg)": 45.0,
        "Latitude(deg)": 7.494406794634777,
        "Longitude(deg)": 32.114211246274465,
        "Mean Anomaly(deg)": -190.65769281650947,
        "RAAN(deg)": 319.9946806184364,
        "Satellite Name": "Constellation 1 1418",
        "Satellite Number": 1418,
        "Semi-Major Axis(m)": 7083131.272910544,
        "Time(s)": 94
    }
]